1 27424U 02022A   12074.74352603 +.00000672 +00000-0 +15911-3 0 02425
2 27424 098.2268 016.6295 0001337 076.5875 283.5452 14.57136029524612